[
    {
        "CCSDS_OMM_VERS": "3.0",
        "COMMENT": "GENERATED VIA SPACE-TRACK.ORG API",
        "CREATION_DATE": "2025-04-14T03:05:54",
        "ORIGINATOR": "18 SPCS",
        "OBJECT_NAME": "NAVSTAR 66 (USA 232)",
        "OBJECT_ID": "2011-036A",
        "CENTER_NAME": "EARTH",
        "REF_FRAME": "TEME",
        "TIME_SYSTEM": "UTC",
        "MEAN_ELEMENT_THEORY": "SGP4",
        "EPOCH": "2025-04-13T08:31:24.648960",
        "MEAN_MOTION": "2.00567155",
        "ECCENTRICITY": "0.01347930",
        "INCLINATION": "56.7214",
        "RA_OF_ASC_NODE": "348.7195",
        "ARG_OF_PERICENTER": "59.1190",
        "MEAN_ANOMALY": "133.3236",
        "EPHEMERIS_TYPE": "0",
        "CLASSIFICATION_TYPE": "U",
        "NORAD_CAT_ID": "37753",
        "ELEMENT_SET_NO": "999",
        "REV_AT_EPOCH": "10065",
        "BSTAR": "0.00000000000000",
        "MEAN_MOTION_DOT": "-0.00000092",
        "MEAN_MOTION_DDOT": "0.0000000000000",
        "SEMIMAJOR_AXIS": "26560.034",
        "PERIOD": "717.964",
        "APOAPSIS": "20539.910",
        "PERIAPSIS": "19823.889",
        "OBJECT_TYPE": "PAYLOAD",
        "RCS_SIZE": "LARGE",
        "COUNTRY_CODE": "US",
        "LAUNCH_DATE": "2011-07-16",
        "SITE": "AFETR",
        "DECAY_DATE": null,
        "FILE": "4701263",
        "GP_ID": "285535684",
        "TLE_LINE0": "0 NAVSTAR 66 (USA 232)",
        "TLE_LINE1": "1 37753U 11036A   25103.35514640 -.00000092  00000-0  00000-0 0  9997",
        "TLE_LINE2": "2 37753  56.7214 348.7195 0134793  59.1190 133.3236  2.00567155100655"
    }
]